[{"OBJECT_NAME":"HJS-6C","OBJECT_ID":"2025-067C","EPOCH":"2026-03-09T22:46:43.472064","MEAN_MOTION":15.37673288,"ECCENTRICITY":0.00109563,"INCLINATION":54.9913,"RA_OF_ASC_NODE":108.3875,"ARG_OF_PERICENTER":78.2576,"MEAN_ANOMALY":281.968,"EPHEMERIS_TYPE":0,"CLASSIFICATION_TYPE":"U","NORAD_CAT_ID":63430,"ELEMENT_SET_NO":999,"REV_AT_EPOCH":5274,"BSTAR":0.000242496,"MEAN_MOTION_DOT":8.728e-5,"MEAN_MOTION_DDOT":0},{"OBJECT_NAME":"SL-3 R\/B","OBJECT_ID":"1983-075B","EPOCH":"2026-03-09T22:44:04.814016","MEAN_MOTION":15.38425255,"ECCENTRICITY":0.00201513,"INCLINATION":97.6147,"RA_OF_ASC_NODE":73.5342,"ARG_OF_PERICENTER":224.8963,"MEAN_ANOMALY":135.0652,"EPHEMERIS_TYPE":0,"CLASSIFICATION_TYPE":"U","NORAD_CAT_ID":14208,"ELEMENT_SET_NO":999,"REV_AT_EPOCH":33019,"BSTAR":0.0003432682,"MEAN_MOTION_DOT":0.00013017,"MEAN_MOTION_DDOT":0}]
